IRIDIUM 136             
1 42962U 17061H   24255.63896577  .00000782  00000+0  27210-3 0  9998
2 42962  86.3932 294.1868 0002032  89.1204 271.0225 14.34217198362599
